<?xml version="1.0" encoding="UTF-8"?>
<ndm xmlns:xsi="http://www.w3.org/2001/XMLSchema-instance" xsi:noNamespaceSchemaLocation="https://sanaregistry.org/r/ndmxml_unqualified/ndmxml-2.0.0-master-2.0.xsd">
<omm id="CCSDS_OMM_VERS" version="2.0">
<header><CREATION_DATE/><ORIGINATOR/></header><body><segment><metadata><OBJECT_NAME>ORBCOMM FM20</OBJECT_NAME><OBJECT_ID>1998-046D</OBJECT_ID><CENTER_NAME>EARTH</CENTER_NAME><REF_FRAME>TEME</REF_FRAME><TIME_SYSTEM>UTC</TIME_SYSTEM><MEAN_ELEMENT_THEORY>SGP4</MEAN_ELEMENT_THEORY></metadata><data><meanElements><EPOCH>2024-05-11T18:34:09.554016</EPOCH><MEAN_MOTION>14.35220396</MEAN_MOTION><ECCENTRICITY>.0000958</ECCENTRICITY><INCLINATION>44.9940</INCLINATION><RA_OF_ASC_NODE>279.3683</RA_OF_ASC_NODE><ARG_OF_PERICENTER>206.9396</ARG_OF_PERICENTER><MEAN_ANOMALY>153.1402</MEAN_ANOMALY></meanElements><tleParameters><EPHEMERIS_TYPE>0</EPHEMERIS_TYPE><CLASSIFICATION_TYPE>U</CLASSIFICATION_TYPE><NORAD_CAT_ID>25416</NORAD_CAT_ID><ELEMENT_SET_NO>999</ELEMENT_SET_NO><REV_AT_EPOCH>34655</REV_AT_EPOCH><BSTAR>.19894E-2</BSTAR><MEAN_MOTION_DOT>.5606E-4</MEAN_MOTION_DOT><MEAN_MOTION_DDOT>0</MEAN_MOTION_DDOT></tleParameters></data></segment></body></omm>
<omm id="CCSDS_OMM_VERS" version="2.0">
<header><CREATION_DATE/><ORIGINATOR/></header><body><segment><metadata><OBJECT_NAME>ORBCOMM FM16</OBJECT_NAME><OBJECT_ID>1998-046E</OBJECT_ID><CENTER_NAME>EARTH</CENTER_NAME><REF_FRAME>TEME</REF_FRAME><TIME_SYSTEM>UTC</TIME_SYSTEM><MEAN_ELEMENT_THEORY>SGP4</MEAN_ELEMENT_THEORY></metadata><data><meanElements><EPOCH>2024-05-11T20:53:46.211136</EPOCH><MEAN_MOTION>14.36207020</MEAN_MOTION><ECCENTRICITY>.0002948</ECCENTRICITY><INCLINATION>44.9940</INCLINATION><RA_OF_ASC_NODE>274.6696</RA_OF_ASC_NODE><ARG_OF_PERICENTER>100.0188</ARG_OF_PERICENTER><MEAN_ANOMALY>260.0992</MEAN_ANOMALY></meanElements><tleParameters><EPHEMERIS_TYPE>0</EPHEMERIS_TYPE><CLASSIFICATION_TYPE>U</CLASSIFICATION_TYPE><NORAD_CAT_ID>25417</NORAD_CAT_ID><ELEMENT_SET_NO>999</ELEMENT_SET_NO><REV_AT_EPOCH>34650</REV_AT_EPOCH><BSTAR>.37114E-2</BSTAR><MEAN_MOTION_DOT>.10803E-3</MEAN_MOTION_DOT><MEAN_MOTION_DDOT>0</MEAN_MOTION_DDOT></tleParameters></data></segment></body></omm>
<omm id="CCSDS_OMM_VERS" version="2.0">
<header><CREATION_DATE/><ORIGINATOR/></header><body><segment><metadata><OBJECT_NAME>ORBCOMM FM15</OBJECT_NAME><OBJECT_ID>1998-046F</OBJECT_ID><CENTER_NAME>EARTH</CENTER_NAME><REF_FRAME>TEME</REF_FRAME><TIME_SYSTEM>UTC</TIME_SYSTEM><MEAN_ELEMENT_THEORY>SGP4</MEAN_ELEMENT_THEORY></metadata><data><meanElements><EPOCH>2024-05-10T17:08:36.135168</EPOCH><MEAN_MOTION>14.35906698</MEAN_MOTION><ECCENTRICITY>.0002733</ECCENTRICITY><INCLINATION>44.9968</INCLINATION><RA_OF_ASC_NODE>284.1967</RA_OF_ASC_NODE><ARG_OF_PERICENTER>95.7737</ARG_OF_PERICENTER><MEAN_ANOMALY>264.3422</MEAN_ANOMALY></meanElements><tleParameters><EPHEMERIS_TYPE>0</EPHEMERIS_TYPE><CLASSIFICATION_TYPE>U</CLASSIFICATION_TYPE><NORAD_CAT_ID>25418</NORAD_CAT_ID><ELEMENT_SET_NO>999</ELEMENT_SET_NO><REV_AT_EPOCH>34634</REV_AT_EPOCH><BSTAR>.10736E-2</BSTAR><MEAN_MOTION_DOT>.3002E-4</MEAN_MOTION_DOT><MEAN_MOTION_DDOT>0</MEAN_MOTION_DDOT></tleParameters></data></segment></body></omm>
<omm id="CCSDS_OMM_VERS" version="2.0">
<header><CREATION_DATE/><ORIGINATOR/></header><body><segment><metadata><OBJECT_NAME>ORBCOMM FM14</OBJECT_NAME><OBJECT_ID>1998-046G</OBJECT_ID><CENTER_NAME>EARTH</CENTER_NAME><REF_FRAME>TEME</REF_FRAME><TIME_SYSTEM>UTC</TIME_SYSTEM><MEAN_ELEMENT_THEORY>SGP4</MEAN_ELEMENT_THEORY></metadata><data><meanElements><EPOCH>2024-05-11T17:10:44.929056</EPOCH><MEAN_MOTION>14.36096296</MEAN_MOTION><ECCENTRICITY>.0001356</ECCENTRICITY><INCLINATION>44.9958</INCLINATION><RA_OF_ASC_NODE>278.5778</RA_OF_ASC_NODE><ARG_OF_PERICENTER>103.6190</ARG_OF_PERICENTER><MEAN_ANOMALY>271.2753</MEAN_ANOMALY></meanElements><tleParameters><EPHEMERIS_TYPE>0</EPHEMERIS_TYPE><CLASSIFICATION_TYPE>U</CLASSIFICATION_TYPE><NORAD_CAT_ID>25419</NORAD_CAT_ID><ELEMENT_SET_NO>999</ELEMENT_SET_NO><REV_AT_EPOCH>34644</REV_AT_EPOCH><BSTAR>.31288E-2</BSTAR><MEAN_MOTION_DOT>.9062E-4</MEAN_MOTION_DOT><MEAN_MOTION_DDOT>0</MEAN_MOTION_DDOT></tleParameters></data></segment></body></omm>
<omm id="CCSDS_OMM_VERS" version="2.0">
<header><CREATION_DATE/><ORIGINATOR/></header><body><segment><metadata><OBJECT_NAME>ORBCOMM FM13</OBJECT_NAME><OBJECT_ID>1998-046H</OBJECT_ID><CENTER_NAME>EARTH</CENTER_NAME><REF_FRAME>TEME</REF_FRAME><TIME_SYSTEM>UTC</TIME_SYSTEM><MEAN_ELEMENT_THEORY>SGP4</MEAN_ELEMENT_THEORY></metadata><data><meanElements><EPOCH>2024-05-11T18:13:19.751232</EPOCH><MEAN_MOTION>14.35376109</MEAN_MOTION><ECCENTRICITY>.0003482</ECCENTRICITY><INCLINATION>44.9972</INCLINATION><RA_OF_ASC_NODE>283.2513</RA_OF_ASC_NODE><ARG_OF_PERICENTER>71.8586</ARG_OF_PERICENTER><MEAN_ANOMALY>288.2640</MEAN_ANOMALY></meanElements><tleParameters><EPHEMERIS_TYPE>0</EPHEMERIS_TYPE><CLASSIFICATION_TYPE>U</CLASSIFICATION_TYPE><NORAD_CAT_ID>25420</NORAD_CAT_ID><ELEMENT_SET_NO>999</ELEMENT_SET_NO><REV_AT_EPOCH>34551</REV_AT_EPOCH><BSTAR>.27473E-2</BSTAR><MEAN_MOTION_DOT>.7823E-4</MEAN_MOTION_DOT><MEAN_MOTION_DDOT>0</MEAN_MOTION_DDOT></tleParameters></data></segment></body></omm>
<omm id="CCSDS_OMM_VERS" version="2.0">
<header><CREATION_DATE/><ORIGINATOR/></header><body><segment><metadata><OBJECT_NAME>ORBCOMM FM21</OBJECT_NAME><OBJECT_ID>1998-053A</OBJECT_ID><CENTER_NAME>EARTH</CENTER_NAME><REF_FRAME>TEME</REF_FRAME><TIME_SYSTEM>UTC</TIME_SYSTEM><MEAN_ELEMENT_THEORY>SGP4</MEAN_ELEMENT_THEORY></metadata><data><meanElements><EPOCH>2024-05-11T22:02:58.363584</EPOCH><MEAN_MOTION>14.35310151</MEAN_MOTION><ECCENTRICITY>.0001033</ECCENTRICITY><INCLINATION>45.0092</INCLINATION><RA_OF_ASC_NODE>6.8177</RA_OF_ASC_NODE><ARG_OF_PERICENTER>21.9343</ARG_OF_PERICENTER><MEAN_ANOMALY>338.1548</MEAN_ANOMALY></meanElements><tleParameters><EPHEMERIS_TYPE>0</EPHEMERIS_TYPE><CLASSIFICATION_TYPE>U</CLASSIFICATION_TYPE><NORAD_CAT_ID>25475</NORAD_CAT_ID><ELEMENT_SET_NO>999</ELEMENT_SET_NO><REV_AT_EPOCH>33955</REV_AT_EPOCH><BSTAR>.2256E-2</BSTAR><MEAN_MOTION_DOT>.6388E-4</MEAN_MOTION_DOT><MEAN_MOTION_DDOT>0</MEAN_MOTION_DDOT></tleParameters></data></segment></body></omm>
<omm id="CCSDS_OMM_VERS" version="2.0">
<header><CREATION_DATE/><ORIGINATOR/></header><body><segment><metadata><OBJECT_NAME>ORBCOMM FM22</OBJECT_NAME><OBJECT_ID>1998-053B</OBJECT_ID><CENTER_NAME>EARTH</CENTER_NAME><REF_FRAME>TEME</REF_FRAME><TIME_SYSTEM>UTC</TIME_SYSTEM><MEAN_ELEMENT_THEORY>SGP4</MEAN_ELEMENT_THEORY></metadata><data><meanElements><EPOCH>2024-05-11T21:29:59.951328</EPOCH><MEAN_MOTION>14.35838291</MEAN_MOTION><ECCENTRICITY>.0002543</ECCENTRICITY><INCLINATION>45.0088</INCLINATION><RA_OF_ASC_NODE>4.2062</RA_OF_ASC_NODE><ARG_OF_PERICENTER>11.5744</ARG_OF_PERICENTER><MEAN_ANOMALY>348.5162</MEAN_ANOMALY></meanElements><tleParameters><EPHEMERIS_TYPE>0</EPHEMERIS_TYPE><CLASSIFICATION_TYPE>U</CLASSIFICATION_TYPE><NORAD_CAT_ID>25476</NORAD_CAT_ID><ELEMENT_SET_NO>999</ELEMENT_SET_NO><REV_AT_EPOCH>33990</REV_AT_EPOCH><BSTAR>.25501E-2</BSTAR><MEAN_MOTION_DOT>.7319E-4</MEAN_MOTION_DOT><MEAN_MOTION_DDOT>0</MEAN_MOTION_DDOT></tleParameters></data></segment></body></omm>
<omm id="CCSDS_OMM_VERS" version="2.0">
<header><CREATION_DATE/><ORIGINATOR/></header><body><segment><metadata><OBJECT_NAME>ORBCOMM FM23</OBJECT_NAME><OBJECT_ID>1998-053C</OBJECT_ID><CENTER_NAME>EARTH</CENTER_NAME><REF_FRAME>TEME</REF_FRAME><TIME_SYSTEM>UTC</TIME_SYSTEM><MEAN_ELEMENT_THEORY>SGP4</MEAN_ELEMENT_THEORY></metadata><data><meanElements><EPOCH>2024-05-11T22:43:34.583520</EPOCH><MEAN_MOTION>14.35355728</MEAN_MOTION><ECCENTRICITY>.0002031</ECCENTRICITY><INCLINATION>45.0093</INCLINATION><RA_OF_ASC_NODE>9.1108</RA_OF_ASC_NODE><ARG_OF_PERICENTER>8.3708</ARG_OF_PERICENTER><MEAN_ANOMALY>351.7173</MEAN_ANOMALY></meanElements><tleParameters><EPHEMERIS_TYPE>0</EPHEMERIS_TYPE><CLASSIFICATION_TYPE>U</CLASSIFICATION_TYPE><NORAD_CAT_ID>25477</NORAD_CAT_ID><ELEMENT_SET_NO>999</ELEMENT_SET_NO><REV_AT_EPOCH>33970</REV_AT_EPOCH><BSTAR>.23719E-2</BSTAR><MEAN_MOTION_DOT>.673E-4</MEAN_MOTION_DOT><MEAN_MOTION_DDOT>0</MEAN_MOTION_DDOT></tleParameters></data></segment></body></omm>

</ndm>
