ORBCOMM FM20            
1 25416U 98046D   24132.77372169  .00005606  00000+0  19894-2 0  9998
2 25416  44.9940 279.3683 0000958 206.9396 153.1402 14.35220396346559
ORBCOMM FM16            
1 25417U 98046E   24132.87067374  .00010803  00000+0  37114-2 0  9999
2 25417  44.9940 274.6696 0002948 100.0188 260.0992 14.36207020346503
ORBCOMM FM15            
1 25418U 98046F   24131.71430712  .00003002  00000+0  10736-2 0  9996
2 25418  44.9968 284.1967 0002733  95.7737 264.3422 14.35906698346346
ORBCOMM FM14            
1 25419U 98046G   24132.71579779  .00009062  00000+0  31288-2 0  9992
2 25419  44.9958 278.5778 0001356 103.6190 271.2753 14.36096296346445
ORBCOMM FM13            
1 25420U 98046H   24132.75925638  .00007823  00000+0  27473-2 0  9991
2 25420  44.9972 283.2513 0003482  71.8586 288.2640 14.35376109345513
ORBCOMM FM21            
1 25475U 98053A   24132.91873106  .00006388  00000+0  22560-2 0  9996
2 25475  45.0092   6.8177 0001033  21.9343 338.1548 14.35310151339554
ORBCOMM FM22            
1 25476U 98053B   24132.89583277  .00007319  00000+0  25501-2 0  9994
2 25476  45.0088   4.2062 0002543  11.5744 348.5162 14.35838291339908
ORBCOMM FM23            
1 25477U 98053C   24132.94692805  .00006730  00000+0  23719-2 0  9994
2 25477  45.0093   9.1108 0002031   8.3708 351.7173 14.35355728339701
